[{"OBJECT_NAME":"STARLINK-5065","OBJECT_ID":"2023-021P","EPOCH":"2025-09-04T12:48:35.640576","MEAN_MOTION":14.98326324,"ECCENTRICITY":0.00030643,"INCLINATION":69.9993,"RA_OF_ASC_NODE":293.9553,"ARG_OF_PERICENTER":268.6445,"MEAN_ANOMALY":91.4363,"EPHEMERIS_TYPE":0,"CLASSIFICATION_TYPE":"U","NORAD_CAT_ID":55641,"ELEMENT_SET_NO":999,"REV_AT_EPOCH":14090,"BSTAR":-2.9026111e-5,"MEAN_MOTION_DOT":-4.39e-6,"MEAN_MOTION_DDOT":0},{"OBJECT_NAME":"STARLINK-5483","OBJECT_ID":"2023-021R","EPOCH":"2025-09-04T11:24:28.585440","MEAN_MOTION":14.98327094,"ECCENTRICITY":0.00034849,"INCLINATION":69.9993,"RA_OF_ASC_NODE":294.1497,"ARG_OF_PERICENTER":270.2204,"MEAN_ANOMALY":89.8556,"EPHEMERIS_TYPE":0,"CLASSIFICATION_TYPE":"U","NORAD_CAT_ID":55643,"ELEMENT_SET_NO":999,"REV_AT_EPOCH":14089,"BSTAR":-4.382552e-5,"MEAN_MOTION_DOT":-6.16e-6,"MEAN_MOTION_DDOT":0},{"OBJECT_NAME":"STARLINK-5502","OBJECT_ID":"2023-021S","EPOCH":"2025-09-04T12:30:33.611904","MEAN_MOTION":14.98325379,"ECCENTRICITY":0.00033152,"INCLINATION":69.9991,"RA_OF_ASC_NODE":293.915,"ARG_OF_PERICENTER":269.7681,"MEAN_ANOMALY":90.3098,"EPHEMERIS_TYPE":0,"CLASSIFICATION_TYPE":"U","NORAD_CAT_ID":55644,"ELEMENT_SET_NO":999,"REV_AT_EPOCH":14090,"BSTAR":3.3995888e-5,"MEAN_MOTION_DOT":3.13e-6,"MEAN_MOTION_DDOT":0},{"OBJECT_NAME":"STARLINK-5510","OBJECT_ID":"2023-021V","EPOCH":"2025-09-04T13:18:36.555264","MEAN_MOTION":14.98326952,"ECCENTRICITY":0.00036027,"INCLINATION":69.9996,"RA_OF_ASC_NODE":293.6275,"ARG_OF_PERICENTER":268.7896,"MEAN_ANOMALY":91.285,"EPHEMERIS_TYPE":0,"CLASSIFICATION_TYPE":"U","NORAD_CAT_ID":55647,"ELEMENT_SET_NO":999,"REV_AT_EPOCH":14091,"BSTAR":-9.1430167e-5,"MEAN_MOTION_DOT":-1.184e-5,"MEAN_MOTION_DDOT":0},{"OBJECT_NAME":"STARLINK-5501","OBJECT_ID":"2023-021W","EPOCH":"2025-09-04T12:24:32.366592","MEAN_MOTION":14.98386942,"ECCENTRICITY":0.000362,"INCLINATION":69.999,"RA_OF_ASC_NODE":293.9002,"ARG_OF_PERICENTER":264.1592,"MEAN_ANOMALY":95.9155,"EPHEMERIS_TYPE":0,"CLASSIFICATION_TYPE":"U","NORAD_CAT_ID":55648,"ELEMENT_SET_NO":999,"REV_AT_EPOCH":14090,"BSTAR":-0.0010488413,"MEAN_MOTION_DOT":-0.00012604,"MEAN_MOTION_DDOT":0},{"OBJECT_NAME":"STARLINK-5469","OBJECT_ID":"2023-021X","EPOCH":"2025-09-04T13:30:38.988864","MEAN_MOTION":14.98325978,"ECCENTRICITY":0.00034708,"INCLINATION":69.9997,"RA_OF_ASC_NODE":293.6572,"ARG_OF_PERICENTER":267.5746,"MEAN_ANOMALY":92.5016,"EPHEMERIS_TYPE":0,"CLASSIFICATION_TYPE":"U","NORAD_CAT_ID":55649,"ELEMENT_SET_NO":999,"REV_AT_EPOCH":14091,"BSTAR":3.8273133e-5,"MEAN_MOTION_DOT":3.64e-6,"MEAN_MOTION_DDOT":0},{"OBJECT_NAME":"STARLINK-5494","OBJECT_ID":"2023-021Y","EPOCH":"2025-09-04T12:12:31.701600","MEAN_MOTION":14.98324787,"ECCENTRICITY":0.0003185,"INCLINATION":69.9995,"RA_OF_ASC_NODE":293.8707,"ARG_OF_PERICENTER":269.3035,"MEAN_ANOMALY":90.7759,"EPHEMERIS_TYPE":0,"CLASSIFICATION_TYPE":"U","NORAD_CAT_ID":55650,"ELEMENT_SET_NO":999,"REV_AT_EPOCH":14090,"BSTAR":-5.2280546e-5,"MEAN_MOTION_DOT":-7.17e-6,"MEAN_MOTION_DDOT":0},{"OBJECT_NAME":"STARLINK-5506","OBJECT_ID":"2023-021Z","EPOCH":"2025-09-04T12:36:34.262784","MEAN_MOTION":14.9832402,"ECCENTRICITY":0.0003235,"INCLINATION":69.9987,"RA_OF_ASC_NODE":293.9287,"ARG_OF_PERICENTER":269.8127,"MEAN_ANOMALY":90.2662,"EPHEMERIS_TYPE":0,"CLASSIFICATION_TYPE":"U","NORAD_CAT_ID":55651,"ELEMENT_SET_NO":999,"REV_AT_EPOCH":14090,"BSTAR":6.1356271e-5,"MEAN_MOTION_DOT":6.39e-6,"MEAN_MOTION_DDOT":0},{"OBJECT_NAME":"STARLINK-5487","OBJECT_ID":"2023-021AA","EPOCH":"2025-09-04T12:00:30.424032","MEAN_MOTION":14.98324778,"ECCENTRICITY":0.00033826,"INCLINATION":69.9993,"RA_OF_ASC_NODE":293.8405,"ARG_OF_PERICENTER":268.7627,"MEAN_ANOMALY":91.3144,"EPHEMERIS_TYPE":0,"CLASSIFICATION_TYPE":"U","NORAD_CAT_ID":55652,"ELEMENT_SET_NO":999,"REV_AT_EPOCH":14090,"BSTAR":-7.5273675e-5,"MEAN_MOTION_DOT":-9.91e-6,"MEAN_MOTION_DDOT":0},{"OBJECT_NAME":"STARLINK-5067","OBJECT_ID":"2023-021AB","EPOCH":"2025-09-04T13:12:35.773056","MEAN_MOTION":14.98327033,"ECCENTRICITY":0.00032852,"INCLINATION":69.999,"RA_OF_ASC_NODE":293.6144,"ARG_OF_PERICENTER":270.6042,"MEAN_ANOMALY":89.474,"EPHEMERIS_TYPE":0,"CLASSIFICATION_TYPE":"U","NORAD_CAT_ID":55653,"ELEMENT_SET_NO":999,"REV_AT_EPOCH":14091,"BSTAR":8.147998e-6,"MEAN_MOTION_DOT":4.0e-8,"MEAN_MOTION_DDOT":0},{"OBJECT_NAME":"STARLINK-5070","OBJECT_ID":"2023-021AC","EPOCH":"2025-09-04T11:18:27.901728","MEAN_MOTION":14.98330436,"ECCENTRICITY":0.00032115,"INCLINATION":69.999,"RA_OF_ASC_NODE":294.1413,"ARG_OF_PERICENTER":270.9973,"MEAN_ANOMALY":89.0818,"EPHEMERIS_TYPE":0,"CLASSIFICATION_TYPE":"U","NORAD_CAT_ID":55654,"ELEMENT_SET_NO":999,"REV_AT_EPOCH":14089,"BSTAR":3.6168719e-5,"MEAN_MOTION_DOT":3.39e-6,"MEAN_MOTION_DDOT":0},{"OBJECT_NAME":"STARLINK-5267","OBJECT_ID":"2023-021AD","EPOCH":"2025-09-04T12:12:13.460832","MEAN_MOTION":14.98328846,"ECCENTRICITY":0.0003484,"INCLINATION":69.9984,"RA_OF_ASC_NODE":273.9948,"ARG_OF_PERICENTER":269.9898,"MEAN_ANOMALY":90.0862,"EPHEMERIS_TYPE":0,"CLASSIFICATION_TYPE":"U","NORAD_CAT_ID":55655,"ELEMENT_SET_NO":999,"REV_AT_EPOCH":14138,"BSTAR":5.2220227e-5,"MEAN_MOTION_DOT":5.3e-6,"MEAN_MOTION_DDOT":0},{"OBJECT_NAME":"STARLINK-5326","OBJECT_ID":"2023-021AE","EPOCH":"2025-09-04T11:30:28.355040","MEAN_MOTION":14.98309952,"ECCENTRICITY":0.00035287,"INCLINATION":69.9994,"RA_OF_ASC_NODE":293.7659,"ARG_OF_PERICENTER":271.7306,"MEAN_ANOMALY":88.3449,"EPHEMERIS_TYPE":0,"CLASSIFICATION_TYPE":"U","NORAD_CAT_ID":55656,"ELEMENT_SET_NO":999,"REV_AT_EPOCH":14090,"BSTAR":-0.00017235203,"MEAN_MOTION_DOT":-2.148e-5,"MEAN_MOTION_DDOT":0},{"OBJECT_NAME":"STARLINK-5328","OBJECT_ID":"2023-021AF","EPOCH":"2025-09-04T12:24:14.015232","MEAN_MOTION":14.9831676,"ECCENTRICITY":0.00033402,"INCLINATION":69.9998,"RA_OF_ASC_NODE":274.0246,"ARG_OF_PERICENTER":268.4847,"MEAN_ANOMALY":91.593,"EPHEMERIS_TYPE":0,"CLASSIFICATION_TYPE":"U","NORAD_CAT_ID":55657,"ELEMENT_SET_NO":999,"REV_AT_EPOCH":14139,"BSTAR":-0.00033285381,"MEAN_MOTION_DOT":-4.061e-5,"MEAN_MOTION_DDOT":0},{"OBJECT_NAME":"STARLINK-5307","OBJECT_ID":"2023-021AG","EPOCH":"2025-09-04T13:24:37.124064","MEAN_MOTION":14.98324421,"ECCENTRICITY":0.00034405,"INCLINATION":69.9997,"RA_OF_ASC_NODE":293.6422,"ARG_OF_PERICENTER":271.0514,"MEAN_ANOMALY":89.0251,"EPHEMERIS_TYPE":0,"CLASSIFICATION_TYPE":"U","NORAD_CAT_ID":55658,"ELEMENT_SET_NO":999,"REV_AT_EPOCH":14091,"BSTAR":-2.890873e-5,"MEAN_MOTION_DOT":-4.38e-6,"MEAN_MOTION_DDOT":0},{"OBJECT_NAME":"STARLINK-5477","OBJECT_ID":"2023-021AH","EPOCH":"2025-09-04T04:17:34.182240","MEAN_MOTION":14.98323029,"ECCENTRICITY":0.00034448,"INCLINATION":69.9974,"RA_OF_ASC_NODE":274.8513,"ARG_OF_PERICENTER":269.1051,"MEAN_ANOMALY":90.9713,"EPHEMERIS_TYPE":0,"CLASSIFICATION_TYPE":"U","NORAD_CAT_ID":55659,"ELEMENT_SET_NO":999,"REV_AT_EPOCH":14133,"BSTAR":8.863733e-6,"MEAN_MOTION_DOT":1.3e-7,"MEAN_MOTION_DDOT":0}]
