STARLINK-5065           
1 55641U 23021P   25247.53374584 -.00000439  00000+0 -29026-4 0  9998
2 55641  69.9993 293.9553 0003064 268.6445  91.4363 14.98326324140904
STARLINK-5483           
1 55643U 23021R   25247.47533085 -.00000616  00000+0 -43826-4 0  9997
2 55643  69.9993 294.1497 0003484 270.2204  89.8556 14.98327094140892
STARLINK-5502           
1 55644U 23021S   25247.52122236  .00000313  00000+0  33996-4 0  9995
2 55644  69.9991 293.9150 0003315 269.7681  90.3098 14.98325379140903
STARLINK-5510           
1 55647U 23021V   25247.55458976 -.00001184  00000+0 -91430-4 0  9990
2 55647  69.9996 293.6275 0003602 268.7896  91.2850 14.98326952140917
STARLINK-5501           
1 55648U 23021W   25247.51704128 -.00012604  00000+0 -10488-2 0  9991
2 55648  69.9990 293.9002 0003620 264.1592  95.9155 14.98386942140909
STARLINK-5469           
1 55649U 23021X   25247.56295126  .00000364  00000+0  38273-4 0  9992
2 55649  69.9997 293.6572 0003470 267.5746  92.5016 14.98325978140919
STARLINK-5494           
1 55650U 23021Y   25247.50870025 -.00000717  00000+0 -52281-4 0  9994
2 55650  69.9995 293.8707 0003185 269.3035  90.7759 14.98324787140905
STARLINK-5506           
1 55651U 23021Z   25247.52539656  .00000639  00000+0  61356-4 0  9993
2 55651  69.9987 293.9287 0003235 269.8127  90.2662 14.98324020140902
STARLINK-5487           
1 55652U 23021AA  25247.50035213 -.00000991  00000+0 -75274-4 0  9999
2 55652  69.9993 293.8405 0003382 268.7627  91.3144 14.98324778140904
STARLINK-5067           
1 55653U 23021AB  25247.55041404  .00000004  00000+0  81480-5 0  9994
2 55653  69.9990 293.6144 0003285 270.6042  89.4740 14.98327033140913
STARLINK-5070           
1 55654U 23021AC  25247.47115627  .00000339  00000+0  36169-4 0  9999
2 55654  69.9990 294.1413 0003211 270.9973  89.0818 14.98330436140894
STARLINK-5267           
1 55655U 23021AD  25247.50848913  .00000530  00000+0  52220-4 0  9994
2 55655  69.9984 273.9948 0003484 269.9898  90.0862 14.98328846141380
STARLINK-5326           
1 55656U 23021AE  25247.47949485 -.00002148  00000+0 -17235-3 0  9992
2 55656  69.9994 293.7659 0003528 271.7306  88.3449 14.98309952140900
STARLINK-5328           
1 55657U 23021AF  25247.51682888 -.00004061  00000+0 -33285-3 0  9998
2 55657  69.9998 274.0246 0003340 268.4847  91.5930 14.98316760141394
STARLINK-5307           
1 55658U 23021AG  25247.55876301 -.00000438  00000+0 -28909-4 0  9990
2 55658  69.9997 293.6422 0003440 271.0514  89.0251 14.98324421140917
STARLINK-5477           
1 55659U 23021AH  25247.17886785  .00000013  00000+0  88637-5 0  9998
2 55659  69.9974 274.8513 0003444 269.1051  90.9713 14.98323029141337
